[{"OBJECT_NAME":"STARLINK-3758","OBJECT_ID":"2022-041AN","EPOCH":"2026-03-09T08:32:28.540896","MEAN_MOTION":15.08839949,"ECCENTRICITY":0.0001376,"INCLINATION":53.2165,"RA_OF_ASC_NODE":100.6189,"ARG_OF_PERICENTER":94.6277,"MEAN_ANOMALY":265.4873,"EPHEMERIS_TYPE":0,"CLASSIFICATION_TYPE":"U","NORAD_CAT_ID":52297,"ELEMENT_SET_NO":999,"REV_AT_EPOCH":21445,"BSTAR":-1.2182526e-5,"MEAN_MOTION_DOT":-4.82e-6,"MEAN_MOTION_DDOT":0},{"OBJECT_NAME":"PACE","OBJECT_ID":"2014-033N","EPOCH":"2026-03-09T22:47:44.809152","MEAN_MOTION":15.09745465,"ECCENTRICITY":0.00061206,"INCLINATION":98.125,"RA_OF_ASC_NODE":67.7953,"ARG_OF_PERICENTER":179.3374,"MEAN_ANOMALY":180.7863,"EPHEMERIS_TYPE":0,"CLASSIFICATION_TYPE":"U","NORAD_CAT_ID":40022,"ELEMENT_SET_NO":999,"REV_AT_EPOCH":63805,"BSTAR":0.00051174262,"MEAN_MOTION_DOT":8.193e-5,"MEAN_MOTION_DDOT":0}]
